GLOBALSTAR M084         
1 38040U 11080A   25127.54876690 -.00000081  00000+0  12913-3 0  9995
2 38040  51.9985 172.1926 0000091 297.8673 212.2965 12.62265908617815
GLOBALSTAR M080         
1 38041U 11080B   25127.09505627 -.00000089  00000+0  79727-4 0  9990
2 38041  52.0039 175.1506 0000633  94.1596 283.4491 12.62262637617741
GLOBALSTAR M082         
1 38042U 11080C   25127.20341174 -.00000086  00000+0  99494-4 0  9999
2 38042  52.0049 130.2760 0000580  89.0977 351.2824 12.62266096618494
GLOBALSTAR M092         
1 38043U 11080D   25126.79668022 -.00000097  00000+0  37507-4 0  9996
2 38043  52.0078 221.8890 0000441 124.2236  27.2796 12.62264134616930
GLOBALSTAR M090         
1 38044U 11080E   25127.15003457 -.00000091  00000+0  72084-4 0  9996
2 38044  51.9859 124.2983 0000321  94.1209 343.7406 12.62270112618475
GLOBALSTAR M086         
1 38045U 11080F   25127.43307675 -.00000069  00000+0  19479-3 0  9990
2 38045  51.9871 123.9842 0000725 222.8723 302.2303 12.62270544618519
GLOBALSTAR M097         
1 39072U 13005A   25127.18577463 -.00000099  00000+0  28133-4 0  9997
2 39072  52.0067  39.2418 0000581  90.8930 269.2003 12.62271894565711
GLOBALSTAR M093         
1 39073U 13005B   25127.79269123 -.00000096  00000+0  42560-4 0  9993
2 39073  51.9834  30.7611 0000659  89.4335 270.6607 12.62264349565782
